KUIPER-00125            
1 65954U 25228H   26020.25002315 -.00211839  00000+0 -15007-1 0  9995
2 65954  51.8995 196.4129 0003959 161.1396 189.1643 15.05427183  4274
KUIPER-00126            
1 65955U 25228J   26020.24263646  .00004347  00000+0  59837-3 0  9994
2 65955  51.8975 214.8417 0000755 119.5377 240.5660 14.79967572 16056
KUIPER-00127            
1 65956U 25228K   26020.22451271  .00006698  00000+0  57940-3 0  9990
2 65956  51.8932 208.6320 0005360 189.0207 171.0667 14.98202702 16148
KUIPER-00128            
1 65957U 25228L   26020.21703301  .00008794  00000+0  11802-2 0  9999
2 65957  51.8985 207.4631 0000576  87.3423 272.7606 14.79965440 16150
KUIPER-00129            
1 65958U 25228M   26020.25002315 -.00022604  00000+0 -27762-2 0  9991
2 65958  51.8980 202.3532 0000801 112.5084 188.7560 14.82403518  5863
KUIPER-00130            
1 65959U 25228N   26020.25002315 -.00025811  00000+0 -33079-2 0  9993
2 65959  51.9002 204.8049 0001550  70.8691  87.6585 14.80705136  5258
KUIPER-00134            
1 65960U 25228P   26019.77827459  .00016076  00000+0  45051-3 0  9999
2 65960  51.8746 196.9952 0007602 147.6773 212.4681 15.36733614 16268
KUIPER-00135            
1 65961U 25228Q   26020.25002315 -.00026821  00000+0 -34077-2 0  9997
2 65961  51.8997 204.8765 0000548 140.0958 194.8573 14.81087741  5748
